ONEWEB-0707             
1 61612U 24188U   26034.13506762  .00000625  00000+0  17526-2 0  9999
2 61612  87.8764  62.9640 0002225 109.0042 251.1327 13.10376093 65760
ONEWEB-0708             
1 61613U 24188V   26034.30604441  .00000420  00000+0  11665-2 0  9993
2 61613  87.8755  62.9604 0002435  91.7984 268.3423 13.10369751 65766
